OBJECT_NAME,OBJECT_ID,EPOCH,MEAN_MOTION,ECCENTRICITY,INCLINATION,RA_OF_ASC_NODE,ARG_OF_PERICENTER,MEAN_ANOMALY,EPHEMERIS_TYPE,CLASSIFICATION_TYPE,NORAD_CAT_ID,ELEMENT_SET_NO,REV_AT_EPOCH,BSTAR,MEAN_MOTION_DOT,MEAN_MOTION_DDOT
ONEWEB-0547,2023-043D,2026-06-08T05:45:57.625056,13.21825625,.0001877,87.9261,245.7536,103.3771,256.7572,0,U,56049,999,15704,.92554E-4,.51E-6,0
ONEWEB-0548,2023-043E,2026-06-08T05:34:47.442720,13.16595937,.0002175,87.9099,230.5484,86.7366,273.4014,0,U,56050,999,15778,.12327E-3,.6E-6,0
ONEWEB-0549,2023-043F,2026-06-08T05:37:29.300160,13.21825718,.0001962,87.9255,245.7619,110.9690,249.1654,0,U,56051,999,15704,.13573E-3,.69E-6,0
ONEWEB-0550,2023-043G,2026-06-08T12:34:08.290848,13.21825610,.0001993,87.9257,245.7018,93.5434,266.5928,0,U,56052,999,15708,.24376E-4,.23E-6,0
ONEWEB-0551,2023-043H,2026-06-08T06:09:23.861088,13.15549397,.0001766,87.9000,261.0057,110.0644,250.0677,0,U,56053,999,15522,.27422E-3,.116E-5,0
ONEWEB-0552,2023-043J,2026-06-08T12:26:51.008352,13.21828350,.0001828,87.9253,245.7086,98.8201,261.3140,0,U,56054,999,15708,.72373E-4,.43E-6,0
ONEWEB-0553,2023-043K,2026-06-08T10:36:53.019648,13.16594612,.0002462,87.9102,230.5104,98.2937,261.8473,0,U,56055,999,15782,-.33557E-4,0,0
ONEWEB-0554,2023-043L,2026-06-08T10:18:37.852992,13.16593783,.0002077,87.9100,230.5222,86.3596,273.7772,0,U,56056,999,15780,-.23649E-2,-.891E-5,0
ONEWEB-0555,2023-043M,2026-06-08T11:13:21.054720,13.16596267,.0002686,87.9103,230.5027,100.8361,259.3072,0,U,56057,999,15781,.64006E-4,.37E-6,0
ONEWEB-0557,2023-043N,2026-06-08T11:33:52.653024,13.16593756,.0003031,87.9103,230.5100,80.4032,279.7441,0,U,56058,999,15781,.11037E-3,.55E-6,0
ONEWEB-0558,2023-043P,2026-06-08T12:17:09.449088,13.21827512,.0002049,87.9255,245.7046,109.4184,250.7171,0,U,56059,999,15709,.18783E-3,.91E-6,0
ONEWEB-0559,2023-043Q,2026-06-08T12:00:11.600064,13.21827451,.0001825,87.9258,245.7016,103.9649,256.1688,0,U,56060,999,15710,.17095E-3,.84E-6,0
ONEWEB-0566,2023-043R,2026-06-08T11:50:31.672896,13.21826965,.0001799,87.9256,245.7013,106.7987,253.3344,0,U,56061,999,15708,.27679E-3,.127E-5,0
ONEWEB-0568,2023-043S,2026-06-08T10:09:31.783392,13.16594239,.0002352,87.9101,230.5113,99.7261,260.4136,0,U,56062,999,15782,.12622E-3,.61E-6,0
ONEWEB-0574,2023-043T,2026-06-08T11:40:49.240128,13.21827692,.000217,87.9266,245.7046,95.0334,265.1048,0,U,56063,999,15712,.28802E-3,.132E-5,0
ONEWEB-0575,2023-043U,2026-06-08T11:49:50.739168,13.16594440,.0002387,87.9101,230.4940,91.2544,268.8861,0,U,56064,999,15782,.39466E-3,.164E-5,0
ONEWEB-0576,2023-043V,2026-06-08T05:54:10.086048,13.16593891,.0002235,87.9102,230.5506,94.4591,265.6796,0,U,56065,999,15778,.28562E-3,.122E-5,0
ONEWEB-0577,2023-043W,2026-06-08T11:31:36.075360,13.16593548,.000249,87.9101,230.5018,82.0240,278.1173,0,U,56066,999,15784,.1977E-3,.88E-6,0
ONEWEB-0578,2023-043X,2026-06-08T05:54:25.866144,13.21824518,.0002362,87.9259,245.7509,100.9919,259.1481,0,U,56067,999,15705,.11119E-3,.59E-6,0
ONEWEB-0579,2023-043Y,2026-06-08T12:58:21.741024,13.21826266,.0001737,87.9264,245.6889,98.3127,261.8204,0,U,56068,999,15710,-.5453E-4,-.1E-6,0
ONEWEB-0581,2023-043Z,2026-06-08T11:40:42.015360,13.16596555,.0002299,87.9103,230.5118,84.9150,275.2243,0,U,56069,999,15781,-.62267E-4,-.11E-6,0
ONEWEB-0609,2023-043AA,2026-06-08T12:15:37.060704,13.15549267,.0001966,87.9000,260.9403,103.0298,257.1052,0,U,56070,999,15529,.38972E-3,.16E-5,0
ONEWEB-0613,2023-043AB,2026-06-08T12:12:11.399328,13.15549796,.0001674,87.9001,260.9531,103.8332,256.2985,0,U,56071,999,15529,.43182E-3,.175E-5,0
ONEWEB-0630,2023-043AC,2026-06-08T04:47:14.285760,13.15550608,.0001701,87.9004,260.9857,102.4317,257.7003,0,U,56072,999,15524,.48206E-3,.194E-5,0
ONEWEB-0632,2023-043AD,2026-06-07T19:32:48.446304,13.15548430,.0001936,87.9002,261.0805,95.0545,265.0807,0,U,56073,999,15519,.46425E-3,.188E-5,0
ONEWEB-0633,2023-043AE,2026-06-08T04:31:15.943872,13.15548167,.0001669,87.9008,260.9809,110.6822,249.4487,0,U,56074,999,15522,.49435E-3,.199E-5,0
ONEWEB-0634,2023-043AF,2026-06-08T06:00:16.727904,13.15548442,.0002222,87.9000,261.0097,107.1453,252.9921,0,U,56075,999,15522,.11988E-3,.58E-6,0
ONEWEB-0635,2023-043AG,2026-06-08T07:42:56.670336,13.15550687,.0002032,87.9008,260.9573,93.1223,267.0140,0,U,56076,999,15526,-.1807E-3,-.55E-6,0
ONEWEB-0636,2023-043AH,2026-06-08T13:00:07.083360,13.15549224,.0002064,87.9004,260.9205,94.9400,265.1966,0,U,56077,999,15527,-.18719E-3,-.58E-6,0
ONEWEB-0637,2023-043AJ,2026-06-08T12:50:59.635680,13.15549054,.0002273,87.9002,260.9381,99.3184,260.8203,0,U,56078,999,15529,-.29577E-3,-.99E-6,0
ONEWEB-0647,2023-043AK,2026-06-08T12:44:09.115584,13.15548645,.0001868,87.9001,260.9514,96.6356,263.4987,0,U,56079,999,15528,-.10484E-3,-.27E-6,0
