ONEWEB-0547             
1 56049U 23043D   26159.24025029  .00000051  00000+0  92554-4 0  9997
2 56049  87.9261 245.7536 0001877 103.3771 256.7572 13.21825625157042
ONEWEB-0548             
1 56050U 23043E   26159.23249355  .00000060  00000+0  12327-3 0  9997
2 56050  87.9099 230.5484 0002175  86.7366 273.4014 13.16595937157785
ONEWEB-0549             
1 56051U 23043F   26159.23436690  .00000069  00000+0  13573-3 0  9991
2 56051  87.9255 245.7619 0001962 110.9690 249.1654 13.21825718157049
ONEWEB-0550             
1 56052U 23043G   26159.52370707  .00000023  00000+0  24376-4 0  9994
2 56052  87.9257 245.7018 0001993  93.5434 266.5928 13.21825610157083
ONEWEB-0551             
1 56053U 23043H   26159.25652617  .00000116  00000+0  27422-3 0  9995
2 56053  87.9000 261.0057 0001766 110.0644 250.0677 13.15549397155221
ONEWEB-0552             
1 56054U 23043J   26159.51864593  .00000043  00000+0  72373-4 0  9998
2 56054  87.9253 245.7086 0001828  98.8201 261.3140 13.21828350157086
ONEWEB-0553             
1 56055U 23043K   26159.44228032  .00000000  00000+0 -33557-4 0  9998
2 56055  87.9102 230.5104 0002462  98.2937 261.8473 13.16594612157829
ONEWEB-0554             
1 56056U 23043L   26159.42960478 -.00000891  00000+0 -23649-2 0  9992
2 56056  87.9100 230.5222 0002077  86.3596 273.7772 13.16593783157800
ONEWEB-0555             
1 56057U 23043M   26159.46760480  .00000037  00000+0  64006-4 0  9992
2 56057  87.9103 230.5027 0002686 100.8361 259.3072 13.16596267157819
ONEWEB-0557             
1 56058U 23043N   26159.48185941  .00000055  00000+0  11037-3 0  9993
2 56058  87.9103 230.5100 0003031  80.4032 279.7441 13.16593756157811
ONEWEB-0558             
1 56059U 23043P   26159.51191492  .00000091  00000+0  18783-3 0  9991
2 56059  87.9255 245.7046 0002049 109.4184 250.7171 13.21827512157090
ONEWEB-0559             
1 56060U 23043Q   26159.50013426  .00000084  00000+0  17095-3 0  9999
2 56060  87.9258 245.7016 0001825 103.9649 256.1688 13.21827451157105
ONEWEB-0566             
1 56061U 23043R   26159.49342214  .00000127  00000+0  27679-3 0  9995
2 56061  87.9256 245.7013 0001799 106.7987 253.3344 13.21826965157081
ONEWEB-0568             
1 56062U 23043S   26159.42328453  .00000061  00000+0  12622-3 0  9997
2 56062  87.9101 230.5113 0002352  99.7261 260.4136 13.16594239157826
ONEWEB-0574             
1 56063U 23043T   26159.48668102  .00000132  00000+0  28802-3 0  9998
2 56063  87.9266 245.7046 0002170  95.0334 265.1048 13.21827692157125
ONEWEB-0575             
1 56064U 23043U   26159.49294837  .00000164  00000+0  39466-3 0  9993
2 56064  87.9101 230.4940 0002387  91.2544 268.8861 13.16594440157825
ONEWEB-0576             
1 56065U 23043V   26159.24595007  .00000122  00000+0  28562-3 0  9999
2 56065  87.9102 230.5506 0002235  94.4591 265.6796 13.16593891157781
ONEWEB-0577             
1 56066U 23043W   26159.48027865  .00000088  00000+0  19770-3 0  9990
2 56066  87.9101 230.5018 0002490  82.0240 278.1173 13.16593548157840
ONEWEB-0578             
1 56067U 23043X   26159.24613271  .00000059  00000+0  11119-3 0  9994
2 56067  87.9259 245.7509 0002362 100.9919 259.1481 13.21824518157053
ONEWEB-0579             
1 56068U 23043Y   26159.54052941 -.00000010  00000+0 -54530-4 0  9993
2 56068  87.9264 245.6889 0001737  98.3127 261.8204 13.21826266157107
ONEWEB-0581             
1 56069U 23043Z   26159.48659740 -.00000011  00000+0 -62267-4 0  9994
2 56069  87.9103 230.5118 0002299  84.9150 275.2243 13.16596555157818
ONEWEB-0609             
1 56070U 23043AA  26159.51084561  .00000160  00000+0  38972-3 0  9991
2 56070  87.9000 260.9403 0001966 103.0298 257.1052 13.15549267155290
ONEWEB-0613             
1 56071U 23043AB  26159.50846527  .00000175  00000+0  43182-3 0  9994
2 56071  87.9001 260.9531 0001674 103.8332 256.2985 13.15549796155299
ONEWEB-0630             
1 56072U 23043AC  26159.19947090  .00000194  00000+0  48206-3 0  9990
2 56072  87.9004 260.9857 0001701 102.4317 257.7003 13.15550608155249
ONEWEB-0632             
1 56073U 23043AD  26158.81444961  .00000188  00000+0  46425-3 0  9992
2 56073  87.9002 261.0805 0001936  95.0545 265.0807 13.15548430155191
ONEWEB-0633             
1 56074U 23043AE  26159.18837898  .00000199  00000+0  49435-3 0  9995
2 56074  87.9008 260.9809 0001669 110.6822 249.4487 13.15548167155226
ONEWEB-0634             
1 56075U 23043AF  26159.25019361  .00000058  00000+0  11988-3 0  9997
2 56075  87.9000 261.0097 0002222 107.1453 252.9921 13.15548442155225
ONEWEB-0635             
1 56076U 23043AG  26159.32148924 -.00000055  00000+0 -18070-3 0  9992
2 56076  87.9008 260.9573 0002032  93.1223 267.0140 13.15550687155267
ONEWEB-0636             
1 56077U 23043AH  26159.54174865 -.00000058  00000+0 -18719-3 0  9993
2 56077  87.9004 260.9205 0002064  94.9400 265.1966 13.15549224155278
ONEWEB-0637             
1 56078U 23043AJ  26159.53541245 -.00000099  00000+0 -29577-3 0  9992
2 56078  87.9002 260.9381 0002273  99.3184 260.8203 13.15549054155291
ONEWEB-0647             
1 56079U 23043AK  26159.53066106 -.00000027  00000+0 -10484-3 0  9999
2 56079  87.9001 260.9514 0001868  96.6356 263.4987 13.15548645155281
